{"IC":[{"type":"point","rawPoint":[35.250568,129.098396],"placeName":"구서IC","road":true,"roadName":"경부선","point":[35.250633705,129.097565924],"index":6},{"type":"point","rawPoint":[35.378218,129.053314],"placeName":"양산IC","road":true,"roadName":"경부선","point":[35.378517789,129.051714451],"index":179},{"type":"point","rawPoint":[35.498747,129.097021],"placeName":"통도사IC","road":true,"roadName":"경부선","point":[35.499586076,129.095502729],"index":320},{"type":"point","rawPoint":[35.806331,129.187987],"placeName":"경주IC","road":true,"roadName":"경부선","point":[35.805916793,129.18628975],"index":680},{"type":"point","rawPoint":[35.843278,129.087849],"placeName":"건천IC","road":true,"roadName":"경부선","point":[35.842742434,129.085959527],"index":785},{"type":"point","rawPoint":[35.921589,128.951168],"placeName":"영천IC","road":true,"roadName":"경부선","point":[35.922372585,128.951153664],"index":964},{"type":"point","rawPoint":[35.878149,128.788225],"placeName":"경산IC","road":true,"roadName":"경부선","point":[35.876945858,128.787669666],"index":1129},{"type":"point","rawPoint":[36.107744,128.362376],"placeName":"구미IC","road":true,"roadName":"경부선","point":[36.107533175,128.361246388],"index":1721},{"type":"point","rawPoint":[36.1345525,128.09456949999998],"placeName":"김천IC","road":true,"roadName":"경부선","point":[36.133826746,128.094654416],"index":2003},{"type":"point","rawPoint":[36.200098499999996,128.0032925],"placeName":"추풍령IC","road":true,"roadName":"경부선","point":[36.200368744,128.001689433],"index":2127},{"type":"point","rawPoint":[36.220617,127.908085],"placeName":"황간IC","road":true,"roadName":"경부선","point":[36.222235531,127.907474206],"index":2224},{"type":"point","rawPoint":[36.270274,127.834783],"placeName":"영동IC","road":true,"roadName":"경부선","point":[36.269335496,127.833385688],"index":2325},{"type":"point","rawPoint":[36.279278,127.673348],"placeName":"금강IC","road":true,"roadName":"경부선","point":[36.279701421,127.672931748],"index":2478},{"type":"point","rawPoint":[36.317789,127.559532],"placeName":"옥천IC","road":true,"roadName":"경부선","point":[36.31668526,127.558214127],"index":2593},{"type":"point","rawPoint":[36.364235,127.452377],"placeName":"대전IC","road":true,"roadName":"경부선","point":[36.363754443,127.450820411],"index":2716},{"type":"point","rawPoint":[36.4408,127.420961],"placeName":"신탄진IC","road":true,"roadName":"경부선","point":[36.441227376,127.419881622],"index":2817},{"type":"point","rawPoint":[36.534315,127.432157],"placeName":"남청주IC","road":true,"roadName":"경부선","point":[36.534783584,127.430457818],"index":2927},{"type":"point","rawPoint":[36.626784,127.385014],"placeName":"청주IC","road":true,"roadName":"경부선","point":[36.626220266,127.383358376],"index":3046},{"type":"point","rawPoint":[36.75879,127.219247],"placeName":"목천IC","road":true,"roadName":"경부선","point":[36.758741908,127.218395945],"index":3293},{"type":"point","rawPoint":[36.994219,127.156069],"placeName":"안성IC","road":true,"roadName":"경부선","point":[36.993480205,127.154499682],"index":3594},{"type":"point","rawPoint":[37.142691,127.086371],"placeName":"오산IC","road":true,"roadName":"경부선","point":[37.142068295,127.084633154],"index":3775},{"type":"point","rawPoint":[37.223075,127.102657],"placeName":"기흥IC","road":true,"roadName":"경부선","point":[37.223197866,127.101721831],"index":3868},{"type":"point","rawPoint":[37.266266,127.105614],"placeName":"수원신갈IC","road":true,"roadName":"경부선","point":[37.265989122,127.103802422],"index":3917},{"type":"point","rawPoint":[37.409462,127.091972],"placeName":"대왕판교IC","road":true,"roadName":"경부선","point":[37.409265074,127.091082985],"index":4079},{"type":"point","rawPoint":[37.463229,127.042014],"placeName":"양재IC","road":true,"roadName":"경부선","point":[37.462537524,127.040833456],"index":4154},{"type":"point","rawPoint":[35.977351,128.43469],"placeName":"왜관IC","road":true,"roadName":"경부선","point":[35.976523866,128.433229962],"index":1532},{"type":"point","rawPoint":[37.397562,127.101818],"placeName":"판교IC","road":true,"roadName":"경부선","point":[37.397393006,127.100688604],"index":4063},{"type":"point","rawPoint":[35.285107,129.10072],"placeName":"노포IC","road":true,"roadName":"경부선","point":[35.286077697,129.101972317],"index":49},{"type":"point","rawPoint":[37.216953,127.099472],"placeName":"기흥동탄IC","road":true,"roadName":"경부선","point":[37.217721617,127.097815276],"index":3861},{"type":"point","rawPoint":[36.134976,128.17756],"placeName":"동김천IC","road":true,"roadName":"경부선","point":[36.136053469,128.176417135],"index":1923},{"type":"point","rawPoint":[37.106594,127.116617],"placeName":"남사진위IC","road":true,"roadName":"경부선","point":[37.106347884,127.11615098],"index":3725},{"type":"point","rawPoint":[36.143558,128.302709],"placeName":"북구미IC","road":true,"roadName":"경부선","point":[36.142934258,128.302781663],"index":1792},{"type":"point","rawPoint":[36.656813,127.372626],"placeName":"옥산하이패스IC","road":true,"roadName":"경부선","point":[36.656314454,127.371799508],"index":3081},{"type":"point","rawPoint":[35.712424,129.192602],"placeName":"활천 나들목IC","road":true,"roadName":"경부선","point":[35.712477408,129.191155132],"index":573},{"type":"point","rawPoint":[35.711867,129.19018],"placeName":"활천IC","road":true,"roadName":"경부선","point":[35.711601232,129.190911703],"index":572},{"type":"point","rawPoint":[34.75431,126.530841],"placeName":"서영암IC","road":true,"roadName":"남해선(영암순천)","point":[34.753748649,126.529816329],"index":4},{"type":"point","rawPoint":[34.698139,126.7173],"placeName":"강진무위사IC","road":true,"roadName":"남해선(영암순천)","point":[34.69718025,126.716885002],"index":197},{"type":"point","rawPoint":[34.7079425,126.906736],"placeName":"장흥IC","road":true,"roadName":"남해선(영암순천)","point":[34.708384368,126.906611049],"index":383},{"type":"point","rawPoint":[34.813545,127.1054845],"placeName":"보성IC","road":true,"roadName":"남해선(영암순천)","point":[34.813948871,127.104954274],"index":610},{"type":"point","rawPoint":[34.8342625,127.29837549999999],"placeName":"벌교IC","road":true,"roadName":"남해선(영암순천)","point":[34.834910262,127.298548344],"index":797},{"type":"point","rawPoint":[34.896991,127.4812165],"placeName":"순천만IC","road":true,"roadName":"남해선(영암순천)","point":[34.897439001,127.48122578],"index":1003},{"type":"point","rawPoint":[34.736691,126.574528],"placeName":"학산IC","road":true,"roadName":"남해선(영암순천)","point":[34.73637546,126.574001042],"index":52},{"type":"point","rawPoint":[34.905184,127.528668],"placeName":"도롱IC","road":true,"roadName":"남해선(영암순천)","point":[34.904254265,127.52888803],"index":1048},{"type":"point","rawPoint":[35.01425,126.435812],"placeName":"북무안IC","road":true,"roadName":"무안광주선","point":[35.014494778,126.435093267],"index":41},{"type":"point","rawPoint":[35.103306,126.695496],"placeName":"나주IC","road":true,"roadName":"무안광주선","point":[35.101905538,126.69638058],"index":304},{"type":"point","rawPoint":[35.068208,126.597922],"placeName":"문평IC","road":true,"roadName":"무안광주선","point":[35.067183718,126.597555279],"index":204},{"type":"point","rawPoint":[35.051868,126.545062],"placeName":"동함평IC","road":true,"roadName":"무안광주선","point":[35.050943757,126.545767912],"index":152},{"type":"point","rawPoint":[35.159772,126.780425],"placeName":"운수IC","road":true,"roadName":"무안광주선","point":[35.159361443,126.780243692],"index":408},{"type":"point","rawPoint":[35.118296,126.734146],"placeName":"서광산IC","road":true,"roadName":"무안광주선","point":[35.119326259,126.733549048],"index":344},{"type":"point","rawPoint":[35.527982,129.006676],"placeName":"배내골나들목IC","road":true,"roadName":"밀양울산선","point":[35.527362275,129.007467151],"index":212},{"type":"point","rawPoint":[34.841913,126.425966],"placeName":"목포IC","road":true,"roadName":"서해안선","point":[34.840696679,126.425694716],"index":4},{"type":"point","rawPoint":[34.857817999999995,126.48150899999999],"placeName":"일로IC","road":true,"roadName":"서해안선","point":[34.858255389,126.481566151],"index":63},{"type":"point","rawPoint":[35.008088,126.492467],"placeName":"무안IC","road":true,"roadName":"서해안선","point":[35.008360078,126.491986458],"index":236},{"type":"point","rawPoint":[35.099671,126.4819385],"placeName":"함평IC","road":true,"roadName":"서해안선","point":[35.100051502,126.481594511],"index":339},{"type":"point","rawPoint":[35.299786499999996,126.55873],"placeName":"영광IC","road":true,"roadName":"서해안선","point":[35.299568605,126.558058887],"index":582},{"type":"point","rawPoint":[35.440911,126.664976],"placeName":"고창IC","road":true,"roadName":"서해안선","point":[35.441116299,126.664424546],"index":771},{"type":"point","rawPoint":[35.508414,126.684341],"placeName":"선운산IC","road":true,"roadName":"서해안선","point":[35.508395135,126.683269318],"index":848},{"type":"point","rawPoint":[35.595948,126.697816],"placeName":"줄포IC","road":true,"roadName":"서해안선","point":[35.595625316,126.696686738],"index":946},{"type":"point","rawPoint":[35.731603,126.775052],"placeName":"부안IC","road":true,"roadName":"서해안선","point":[35.731948273,126.774352548],"index":1117},{"type":"point","rawPoint":[35.835575,126.840665],"placeName":"서김제IC","road":true,"roadName":"서해안선","point":[35.836020759,126.839821504],"index":1250},{"type":"point","rawPoint":[35.94703,126.835651],"placeName":"동군산IC","road":true,"roadName":"서해안선","point":[35.94700606,126.834345525],"index":1376},{"type":"point","rawPoint":[36.00904,126.79944],"placeName":"군산IC","road":true,"roadName":"서해안선","point":[36.008988189,126.799469187],"index":1457},{"type":"point","rawPoint":[36.099759,126.690184],"placeName":"서천IC","road":true,"roadName":"서해안선","point":[36.09875211,126.689984703],"index":1609},{"type":"point","rawPoint":[36.169227,126.601782],"placeName":"춘장대IC","road":true,"roadName":"서해안선","point":[36.169143474,126.600791542],"index":1730},{"type":"point","rawPoint":[36.333293,126.576103],"placeName":"대천IC","road":true,"roadName":"서해안선","point":[36.332974688,126.575521311],"index":1935},{"type":"point","rawPoint":[36.496876,126.586451],"placeName":"광천IC","road":true,"roadName":"서해안선","point":[36.497151458,126.584945],"index":2131},{"type":"point","rawPoint":[36.592036,126.561726],"placeName":"홍성IC","road":true,"roadName":"서해안선","point":[36.592142992,126.560152336],"index":2241},{"type":"point","rawPoint":[36.713818,126.564163],"placeName":"해미IC","road":true,"roadName":"서해안선","point":[36.713492145,126.562560596],"index":2379},{"type":"point","rawPoint":[36.80818,126.573123],"placeName":"서산IC","road":true,"roadName":"서해안선","point":[36.808789889,126.572570326],"index":2487},{"type":"point","rawPoint":[36.893758,126.710095],"placeName":"당진IC","road":true,"roadName":"서해안선","point":[36.894400475,126.709335352],"index":2647},{"type":"point","rawPoint":[36.931971,126.777242],"placeName":"송악IC","road":true,"roadName":"서해안선","point":[36.932967834,126.776772967],"index":2722},{"type":"point","rawPoint":[37.000178,126.870408],"placeName":"서평택IC","road":true,"roadName":"서해안선","point":[37.000147482,126.868995051],"index":2854},{"type":"point","rawPoint":[37.124645,126.883322],"placeName":"발안IC","road":true,"roadName":"서해안선","point":[37.124042814,126.882090842],"index":2995},{"type":"point","rawPoint":[37.242385,126.883347],"placeName":"비봉IC","road":true,"roadName":"서해안선","point":[37.242240349,126.882056282],"index":3129},{"type":"point","rawPoint":[37.279274,126.899805],"placeName":"매송IC","road":true,"roadName":"서해안선","point":[37.279282331,126.898003245],"index":3173},{"type":"point","rawPoint":[37.396386,126.873127],"placeName":"목감IC","road":true,"roadName":"서해안선","point":[37.396953025,126.87165772],"index":3321},{"type":"point","rawPoint":[37.46085,126.890704],"placeName":"금천IC","road":true,"roadName":"서해안선","point":[37.460363526,126.890605649],"index":3402},{"type":"point","rawPoint":[37.404257,126.881624],"placeName":"광명역IC","road":true,"roadName":"서해안선","point":[37.405013792,126.881263303],"index":3334},{"type":"point","rawPoint":[36.238946,126.563063],"placeName":"무창포IC","road":true,"roadName":"서해안선","point":[36.238190073,126.561301926],"index":1815},{"type":"point","rawPoint":[35.240731,126.508155],"placeName":"불갑산하이패스IC","road":true,"roadName":"서해안선","point":[35.240318227,126.508293701],"index":501},{"type":"point","rawPoint":[34.843253,126.463619],"placeName":"죽림ICIC","road":true,"roadName":"서해안선","point":[34.843424877,126.464086901],"index":40},{"type":"point","rawPoint":[35.5522455,129.2607715],"placeName":"울산IC","road":true,"roadName":"울산선","point":[35.552072445,129.260683474],"index":140},{"type":"point","rawPoint":[35.556461,129.252337],"placeName":"장검IC","road":true,"roadName":"울산선","point":[35.556592636,129.252434627],"index":131},{"type":"point","rawPoint":[37.057822,126.989983],"placeName":"어연IC","road":true,"roadName":"평택화성선","point":[37.058851232,126.988573944],"index":58},{"type":"point","rawPoint":[37.129666,127.002153],"placeName":"향남IC","road":true,"roadName":"평택화성선","point":[37.130182199,127.000642468],"index":140},{"type":"point","rawPoint":[37.016436,126.987115],"placeName":"오성IC","road":true,"roadName":"평택화성선","point":[37.01627008,126.985799334],"index":10},{"type":"point","rawPoint":[35.015398,127.373319],"placeName":"승주IC","road":true,"roadName":"논산천안선/호남선","point":[35.014818479,127.373515923],"index":101},{"type":"point","rawPoint":[35.067676,127.271957],"placeName":"주암IC","road":true,"roadName":"논산천안선/호남선","point":[35.067501235,127.270369458],"index":218},{"type":"point","rawPoint":[35.128195,127.247905],"placeName":"석곡IC","road":true,"roadName":"논산천안선/호남선","point":[35.128342218,127.247263631],"index":292},{"type":"point","rawPoint":[35.227088,127.22277],"placeName":"곡성IC","road":true,"roadName":"논산천안선/호남선","point":[35.226345346,127.222813904],"index":412},{"type":"point","rawPoint":[35.259558,127.115462],"placeName":"옥과IC","road":true,"roadName":"논산천안선/호남선","point":[35.25874607,127.115137732],"index":524},{"type":"point","rawPoint":[35.234082,127.001898],"placeName":"창평IC","road":true,"roadName":"논산천안선/호남선","point":[35.23320323,127.00279206],"index":638},{"type":"point","rawPoint":[35.184196,126.928936],"placeName":"동광주IC","road":true,"roadName":"논산천안선/호남선","point":[35.184199194,126.927508414],"index":739},{"type":"point","rawPoint":[35.184854,126.897974],"placeName":"용봉IC","road":true,"roadName":"논산천안선/호남선","point":[35.184351636,126.897441622],"index":768},{"type":"point","rawPoint":[35.185908,126.88322],"placeName":"서광주IC","road":true,"roadName":"논산천안선/호남선","point":[35.184860779,126.883136971],"index":781},{"type":"point","rawPoint":[35.217228,126.829558],"placeName":"광산IC","road":true,"roadName":"논산천안선/호남선","point":[35.216989001,126.827967427],"index":847},{"type":"point","rawPoint":[35.285572,126.789396],"placeName":"장성IC","road":true,"roadName":"논산천안선/호남선","point":[35.284369675,126.787780418],"index":937},{"type":"point","rawPoint":[35.427893,126.804569],"placeName":"백양사IC","road":true,"roadName":"논산천안선/호남선","point":[35.428185253,126.803432742],"index":1106},{"type":"point","rawPoint":[35.509628,126.802644],"placeName":"내장산IC","road":true,"roadName":"논산천안선/호남선","point":[35.510008896,126.802263648],"index":1203},{"type":"point","rawPoint":[35.580557999999996,126.834475],"placeName":"정읍IC","road":true,"roadName":"논산천안선/호남선","point":[35.580930755,126.833180128],"index":1288},{"type":"point","rawPoint":[35.660241,126.928297],"placeName":"태인IC","road":true,"roadName":"논산천안선/호남선","point":[35.661539715,126.92782956],"index":1416},{"type":"point","rawPoint":[35.736366,126.98969600000001],"placeName":"금산사IC","road":true,"roadName":"논산천안선/호남선","point":[35.736533287,126.988914951],"index":1521},{"type":"point","rawPoint":[35.775265,127.0029235],"placeName":"김제IC","road":true,"roadName":"논산천안선/호남선","point":[35.775713416,127.002435575],"index":1568},{"type":"point","rawPoint":[35.827817499999995,127.034945],"placeName":"서전주IC","road":true,"roadName":"논산천안선/호남선","point":[35.827679316,127.034109771],"index":1634},{"type":"point","rawPoint":[35.8789965,127.05619899999999],"placeName":"전주IC","road":true,"roadName":"논산천안선/호남선","point":[35.878897112,127.055533069],"index":1695},{"type":"point","rawPoint":[35.9252115,127.07968650000001],"placeName":"삼례IC","road":true,"roadName":"논산천안선/호남선","point":[35.925702275,127.079383492],"index":1756},{"type":"point","rawPoint":[35.991932,127.115648],"placeName":"익산IC","road":true,"roadName":"논산천안선/호남선","point":[35.992069956,127.113741375],"index":1839},{"type":"point","rawPoint":[35.19464,126.865562],"placeName":"동림IC","road":true,"roadName":"논산천안선/호남선","point":[35.192916094,126.86561372],"index":800},{"type":"point","rawPoint":[35.015398,127.373319],"placeName":"승주IC","road":true,"roadName":"호남선","point":[35.014818479,127.373515923],"index":101},{"type":"point","rawPoint":[35.067676,127.271957],"placeName":"주암IC","road":true,"roadName":"호남선","point":[35.067501235,127.270369458],"index":218},{"type":"point","rawPoint":[35.128195,127.247905],"placeName":"석곡IC","road":true,"roadName":"호남선","point":[35.128342218,127.247263631],"index":292},{"type":"point","rawPoint":[35.227088,127.22277],"placeName":"곡성IC","road":true,"roadName":"호남선","point":[35.226345346,127.222813904],"index":412},{"type":"point","rawPoint":[35.259558,127.115462],"placeName":"옥과IC","road":true,"roadName":"호남선","point":[35.25874607,127.115137732],"index":524},{"type":"point","rawPoint":[35.234082,127.001898],"placeName":"창평IC","road":true,"roadName":"호남선","point":[35.23320323,127.00279206],"index":638},{"type":"point","rawPoint":[35.184196,126.928936],"placeName":"동광주IC","road":true,"roadName":"호남선","point":[35.184199194,126.927508414],"index":739},{"type":"point","rawPoint":[35.184854,126.897974],"placeName":"용봉IC","road":true,"roadName":"호남선","point":[35.184351636,126.897441622],"index":768},{"type":"point","rawPoint":[35.185908,126.88322],"placeName":"서광주IC","road":true,"roadName":"호남선","point":[35.184860779,126.883136971],"index":781},{"type":"point","rawPoint":[35.217228,126.829558],"placeName":"광산IC","road":true,"roadName":"호남선","point":[35.216989001,126.827967427],"index":847},{"type":"point","rawPoint":[35.285572,126.789396],"placeName":"장성IC","road":true,"roadName":"호남선","point":[35.284369675,126.787780418],"index":937},{"type":"point","rawPoint":[35.427893,126.804569],"placeName":"백양사IC","road":true,"roadName":"호남선","point":[35.428185253,126.803432742],"index":1106},{"type":"point","rawPoint":[35.509628,126.802644],"placeName":"내장산IC","road":true,"roadName":"호남선","point":[35.510008896,126.802263648],"index":1203},{"type":"point","rawPoint":[35.580557999999996,126.834475],"placeName":"정읍IC","road":true,"roadName":"호남선","point":[35.580930755,126.833180128],"index":1288},{"type":"point","rawPoint":[35.660241,126.928297],"placeName":"태인IC","road":true,"roadName":"호남선","point":[35.661539715,126.92782956],"index":1416},{"type":"point","rawPoint":[35.736366,126.98969600000001],"placeName":"금산사IC","road":true,"roadName":"호남선","point":[35.736533287,126.988914951],"index":1521},{"type":"point","rawPoint":[35.775265,127.0029235],"placeName":"김제IC","road":true,"roadName":"호남선","point":[35.775713416,127.002435575],"index":1568},{"type":"point","rawPoint":[35.827817499999995,127.034945],"placeName":"서전주IC","road":true,"roadName":"호남선","point":[35.827679316,127.034109771],"index":1634},{"type":"point","rawPoint":[35.8789965,127.05619899999999],"placeName":"전주IC","road":true,"roadName":"호남선","point":[35.878897112,127.055533069],"index":1695},{"type":"point","rawPoint":[35.9252115,127.07968650000001],"placeName":"삼례IC","road":true,"roadName":"호남선","point":[35.925702275,127.079383492],"index":1756},{"type":"point","rawPoint":[35.991932,127.115648],"placeName":"익산IC","road":true,"roadName":"호남선","point":[35.992069956,127.113741375],"index":1839},{"type":"point","rawPoint":[35.19464,126.865562],"placeName":"동림IC","road":true,"roadName":"호남선","point":[35.192916094,126.86561372],"index":800},{"type":"point","rawPoint":[35.847334,127.191059],"placeName":"동전주IC","road":true,"roadName":"순천완주선","point":[35.847396155,127.189184328],"index":1134},{"type":"point","rawPoint":[35.759052,127.219857],"placeName":"상관IC","road":true,"roadName":"순천완주선","point":[35.758876538,127.218847798],"index":1029},{"type":"point","rawPoint":[35.552347,127.321861],"placeName":"오수IC","road":true,"roadName":"순천완주선","point":[35.55280332,127.320660521],"index":758},{"type":"point","rawPoint":[35.631977,127.316656],"placeName":"임실IC","road":true,"roadName":"순천완주선","point":[35.631036071,127.315415883],"index":856},{"type":"point","rawPoint":[35.361444,127.339514],"placeName":"서남원IC","road":true,"roadName":"순천완주선","point":[35.360486845,127.338151539],"index":525},{"type":"point","rawPoint":[35.250065,127.420695],"placeName":"구례화엄사IC","road":true,"roadName":"순천완주선","point":[35.249250513,127.419875563],"index":377},{"type":"point","rawPoint":[35.146801,127.458033],"placeName":"황전IC","road":true,"roadName":"순천완주선","point":[35.146309434,127.456971351],"index":250},{"type":"point","rawPoint":[34.948932,127.554626],"placeName":"동순천IC","road":true,"roadName":"순천완주선","point":[34.949204461,127.552563947],"index":6},{"type":"point","rawPoint":[35.439432,127.313825],"placeName":"북남원IC","road":true,"roadName":"순천완주선","point":[35.439682189,127.31242014],"index":622},{"type":"point","rawPoint":[36.375026,128.29656],"placeName":"동상주IC","road":true,"roadName":"상주영덕선","point":[36.375908377,128.297016297],"index":27},{"type":"point","rawPoint":[36.40011,128.410897],"placeName":"서의성IC","road":true,"roadName":"상주영덕선","point":[36.401003254,128.410277886],"index":135},{"type":"point","rawPoint":[36.417669,128.686711],"placeName":"북의성IC","road":true,"roadName":"상주영덕선","point":[36.419001671,128.686552282],"index":397},{"type":"point","rawPoint":[36.456075,129.026638],"placeName":"청송IC","road":true,"roadName":"상주영덕선","point":[36.455179037,129.026359885],"index":719},{"type":"point","rawPoint":[36.492909,129.123188],"placeName":"동청송영양IC","road":true,"roadName":"상주영덕선","point":[36.493955627,129.122829183],"index":818},{"type":"point","rawPoint":[36.437281,128.889329],"placeName":"동안동IC","road":true,"roadName":"상주영덕선","point":[36.43661779,128.88970594],"index":590},{"type":"point","rawPoint":[36.375026,128.29656],"placeName":"동상주IC","road":true,"roadName":"청주상주선","point":[36.375908376,128.297016296],"index":853},{"type":"point","rawPoint":[36.40011,128.410897],"placeName":"서의성IC","road":true,"roadName":"청주상주선","point":[36.400938886,128.410054357],"index":961},{"type":"point","rawPoint":[36.417669,128.686711],"placeName":"북의성IC","road":true,"roadName":"청주상주선","point":[36.419001671,128.686552281],"index":1223},{"type":"point","rawPoint":[36.456075,129.026638],"placeName":"청송IC","road":true,"roadName":"청주상주선","point":[36.455179037,129.026359884],"index":1545},{"type":"point","rawPoint":[36.492909,129.123188],"placeName":"동청송영양IC","road":true,"roadName":"청주상주선","point":[36.493955627,129.122829183],"index":1644},{"type":"point","rawPoint":[36.437281,128.889329],"placeName":"동안동IC","road":true,"roadName":"청주상주선","point":[36.43661779,128.889705939],"index":1416}],"JC":[{"type":"junction","placeName":"천안JC","rawPoint":[36.769703,127.182262],"point1":{"type":"point","road":true,"roadName":"경부선","index":3329,"point":[36.769081542,127.181866426]},"point2":{"type":"point","road":true,"roadName":"논산천안선","index":820,"point":[36.769599755,127.180823795]},"midPoint":{"type":"point","road":false,"point":[36.769340648500005,127.18134511049999]},"distance":109.29427080440763},{"type":"junction","placeName":"순천분기JC","rawPoint":[34.992674,127.539084],"point1":{"type":"point","road":true,"roadName":"남해선(순천부산)","index":60,"point":[34.991152205,127.539280381]},"point2":{"type":"point","road":true,"roadName":"순천완주선","index":57,"point":[34.991585757,127.538317511]},"midPoint":{"type":"point","road":false,"point":[34.991368981,127.538798946]},"distance":100.08806682719023},{"type":"junction","placeName":"고서JC","rawPoint":[35.22423,126.96055],"point1":{"type":"point","road":true,"roadName":"광주대구선","index":0,"point":[35.225062024,126.960135971]},"point2":{"type":"point","road":true,"roadName":"논산천안선/호남선","index":680,"point":[35.224194273,126.960732411]},"midPoint":{"type":"point","road":false,"point":[35.2246281485,126.96043419099999]},"distance":110.65906273071224},{"type":"junction","placeName":"고서JC","rawPoint":[35.22423,126.96055],"point1":{"type":"point","road":true,"roadName":"광주대구선","index":0,"point":[35.225062024,126.960135971]},"point2":{"type":"point","road":true,"roadName":"호남선","index":680,"point":[35.224194273,126.960732411]},"midPoint":{"type":"point","road":false,"point":[35.2246281485,126.96043419099999]},"distance":110.65906273071224},{"type":"junction","placeName":"당진JC","rawPoint":[36.85111,126.61852],"point1":{"type":"point","road":true,"roadName":"서해안선","index":2550,"point":[36.851108335,126.618517575]},"point2":{"type":"point","road":true,"roadName":"당진대전선","index":0,"point":[36.850914972,126.618416204]},"midPoint":{"type":"point","road":false,"point":[36.851011653499995,126.6184668895]},"distance":23.316277525731596},{"type":"junction","placeName":"완주JC","rawPoint":[35.884309,127.173058],"point1":{"type":"point","road":true,"roadName":"완주장수선","index":102,"point":[35.883849156,127.17297232]},"point2":{"type":"point","road":true,"roadName":"순천완주선","index":1179,"point":[35.884231151,127.172297814]},"midPoint":{"type":"point","road":false,"point":[35.884040153499996,127.172635067]},"distance":74.1403727781401},{"type":"junction","placeName":"고서JC","rawPoint":[35.22423,126.96055],"point1":{"type":"point","road":true,"roadName":"논산천안선/호남선","index":680,"point":[35.224194273,126.960732411]},"point2":{"type":"point","road":true,"roadName":"호남선","index":680,"point":[35.224194273,126.960732411]},"midPoint":{"type":"point","road":false,"point":[35.224194273,126.960732411]},"distance":0},{"type":"junction","placeName":"논산JC","rawPoint":[36.0818225,127.1031625],"point1":{"type":"point","road":true,"roadName":"논산천안선/호남선","index":1942,"point":[36.08165398,127.10253449]},"point2":{"type":"point","road":true,"roadName":"호남선","index":1942,"point":[36.08165398,127.10253449]},"midPoint":{"type":"point","road":false,"point":[36.08165398,127.10253449]},"distance":0},{"type":"junction","placeName":"장성JC","rawPoint":[35.32995,126.80451],"point1":{"type":"point","road":true,"roadName":"논산천안선/호남선","index":990,"point":[35.330135208,126.804717584]},"point2":{"type":"point","road":true,"roadName":"호남선","index":990,"point":[35.330135208,126.804717584]},"midPoint":{"type":"point","road":false,"point":[35.330135208,126.804717584]},"distance":0},{"type":"junction","placeName":"산월JC","rawPoint":[35.203327,126.842161],"point1":{"type":"point","road":true,"roadName":"논산천안선/호남선","index":827,"point":[35.202415356,126.840292224]},"point2":{"type":"point","road":true,"roadName":"호남선","index":827,"point":[35.202415356,126.840292224]},"midPoint":{"type":"point","road":false,"point":[35.202415356,126.840292224]},"distance":0},{"type":"junction","placeName":"대덕JC","rawPoint":[35.246539,127.03542],"point1":{"type":"point","road":true,"roadName":"논산천안선/호남선","index":604,"point":[35.246490713,127.034901321]},"point2":{"type":"point","road":true,"roadName":"호남선","index":604,"point":[35.246490713,127.034901321]},"midPoint":{"type":"point","road":false,"point":[35.246490713,127.034901321]},"distance":0},{"type":"junction","placeName":"문흥JC","rawPoint":[35.194085,126.93059],"point1":{"type":"point","road":true,"roadName":"논산천안선/호남선","index":728,"point":[35.193944838,126.929324982]},"point2":{"type":"point","road":true,"roadName":"호남선","index":728,"point":[35.193944838,126.929324982]},"midPoint":{"type":"point","road":false,"point":[35.193944838,126.929324982]},"distance":0},{"type":"junction","placeName":"남장성분기점JC","rawPoint":[35.259769,126.797976],"point1":{"type":"point","road":true,"roadName":"논산천안선/호남선","index":904,"point":[35.260950559,126.799272765]},"point2":{"type":"point","road":true,"roadName":"호남선","index":904,"point":[35.260950559,126.799272765]},"midPoint":{"type":"point","road":false,"point":[35.260950559,126.799272765]},"distance":0},{"type":"junction","placeName":"논산JC","rawPoint":[36.0818225,127.1031625],"point1":{"type":"point","road":true,"roadName":"논산천안선/호남선","index":1942,"point":[36.08165398,127.10253449]},"point2":{"type":"point","road":true,"roadName":"논산천안선","index":0,"point":[36.081864439,127.102605672]},"midPoint":{"type":"point","road":false,"point":[36.0817592095,127.102570081]},"distance":24.26048688500967},{"type":"junction","placeName":"논산JC","rawPoint":[36.0818225,127.1031625],"point1":{"type":"point","road":true,"roadName":"호남선","index":1942,"point":[36.08165398,127.10253449]},"point2":{"type":"point","road":true,"roadName":"논산천안선","index":0,"point":[36.081864439,127.102605672]},"midPoint":{"type":"point","road":false,"point":[36.0817592095,127.102570081]},"distance":24.26048688500967},{"type":"junction","placeName":"상주JC","rawPoint":[36.374984,128.275147],"point1":{"type":"point","road":true,"roadName":"상주영덕선","index":7,"point":[36.373934943,128.275015022]},"point2":{"type":"point","road":true,"roadName":"청주상주선","index":833,"point":[36.373934943,128.275015021]},"midPoint":{"type":"point","road":false,"point":[36.373934943,128.2750150215]},"distance":0.00008952916871817828},{"type":"junction","placeName":"안동JC","rawPoint":[36.434393,128.623547],"point1":{"type":"point","road":true,"roadName":"상주영덕선","index":337,"point":[36.432706859,128.622895281]},"point2":{"type":"point","road":true,"roadName":"청주상주선","index":1163,"point":[36.432706859,128.62289528]},"midPoint":{"type":"point","road":false,"point":[36.432706859,128.62289528050002]},"distance":0.00008946402161638264}]}
